{
"type": "FeatureCollection",
"crs": { "type": "name", "properties": { "name": "urn:ogc:def:crs:OGC:1.3:CRS84" } },
                                                                                
"features": [
{ "type": "Feature", "properties": { "amenity": "college", "name": "Reliance International Academy (RIA)" }, "geometry": { "type": "Point", "coordinates": [ 85.348758638783764, 27.722688627834092 ] } },
{ "type": "Feature", "properties": { "amenity": "college", "name": "Kathmandu Unified City College" }, "geometry": { "type": "Point", "coordinates": [ 85.346895144555134, 27.721993431816657 ] } },
{ "type": "Feature", "properties": { "amenity": "college", "name": "Himal Dental Hospital & Institute of Dental Science" }, "geometry": { "type": "Point", "coordinates": [ 85.346020599999989, 27.71978645 ] } },
{ "type": "Feature", "properties": { "amenity": "school", "name": "Shree Pashupati Mitra Secondary School" }, "geometry": { "type": "Point", "coordinates": [ 85.345995020188539, 27.716451442237101 ] } },
{ "type": "Feature", "properties": { "amenity": "college", "name": "Wigan & Leigh College" }, "geometry": { "type": "Point", "coordinates": [ 85.339154979060154, 27.708146497904909 ] } },
{ "type": "Feature", "properties": { "amenity": "school", "name": "Himalaya Vidya Mandir Higher Secondary School" }, "geometry": { "type": "Point", "coordinates": [ 85.3387200355495, 27.709748297571355 ] } },
{ "type": "Feature", "properties": { "amenity": "school", "name": "New English School" }, "geometry": { "type": "Point", "coordinates": [ 85.352227921945527, 27.717169886458493 ] } },
{ "type": "Feature", "properties": { "amenity": "school", "name": "Ideal English Higher Secondary School" }, "geometry": { "type": "Point", "coordinates": [ 85.34999036015779, 27.716704667223333 ] } },
{ "type": "Feature", "properties": { "amenity": "school", "name": "Ghataraj Prabha Niketan School" }, "geometry": { "type": "Point", "coordinates": [ 85.349189818350212, 27.724227114800396 ] } },
{ "type": "Feature", "properties": { "amenity": "school", "name": "Eden Public School" }, "geometry": { "type": "Point", "coordinates": [ 85.343433159423469, 27.717032550234361 ] } },
{ "type": "Feature", "properties": { "amenity": "school", "name": "Shree Mitra Lower Secondary School" }, "geometry": { "type": "Point", "coordinates": [ 85.344412592576177, 27.717126977558671 ] } },
{ "type": "Feature", "properties": { "amenity": "school", "name": "Subharambha Secondary School" }, "geometry": { "type": "Point", "coordinates": [ 85.342498782138875, 27.717599960408371 ] } },
{ "type": "Feature", "properties": { "amenity": "school", "name": "Clinton School" }, "geometry": { "type": "Point", "coordinates": [ 85.343884115602947, 27.717304618625839 ] } },
{ "type": "Feature", "properties": { "amenity": "college", "name": "Pushpalal Memorial College" }, "geometry": { "type": "Point", "coordinates": [ 85.345356125661354, 27.718084414546102 ] } },
{ "type": "Feature", "properties": { "amenity": "school", "name": "G. S. English School" }, "geometry": { "type": "Point", "coordinates": [ 85.343954517197389, 27.716709224848227 ] } },
{ "type": "Feature", "properties": { "amenity": "school", "name": "Heritage High Academy" }, "geometry": { "type": "Point", "coordinates": [ 85.33994639232796, 27.717111191103079 ] } },
{ "type": "Feature", "properties": { "amenity": "college", "name": "SANN Institute of Nursing" }, "geometry": { "type": "Point", "coordinates": [ 85.341181192063971, 27.712879193776832 ] } },
{ "type": "Feature", "properties": { "amenity": "college", "name": "Cosmopolitan College" }, "geometry": { "type": "Point", "coordinates": [ 85.342421167730379, 27.714900988637357 ] } },
{ "type": "Feature", "properties": { "amenity": "school", "name": "Jagat Mandir English Boarding School" }, "geometry": { "type": "Point", "coordinates": [ 85.342507409642451, 27.715201256277343 ] } },
{ "type": "Feature", "properties": { "amenity": "school", "name": "Paradise International Academy" }, "geometry": { "type": "Point", "coordinates": [ 85.339216026069153, 27.713198511842549 ] } },
{ "type": "Feature", "properties": { "amenity": "school", "name": "Creative English School" }, "geometry": { "type": "Point", "coordinates": [ 85.343392983356424, 27.714155782595451 ] } },
{ "type": "Feature", "properties": { "amenity": "kindergarten", "name": "Sano Sansar Pre-School" }, "geometry": { "type": "Point", "coordinates": [ 85.343086285239366, 27.714763245366594 ] } },
{ "type": "Feature", "properties": { "amenity": "college", "name": "Nepa School of Social Sciences and Humanities" }, "geometry": { "type": "Point", "coordinates": [ 85.343041125275761, 27.714980743784832 ] } },
{ "type": "Feature", "properties": { "amenity": "school", "name": "National Orchid Boarding School" }, "geometry": { "type": "Point", "coordinates": [ 85.343827237831178, 27.715176670854682 ] } },
{ "type": "Feature", "properties": { "amenity": "school", "name": "Saipal Academy" }, "geometry": { "type": "Point", "coordinates": [ 85.348573953741621, 27.7249203249159 ] } },
{ "type": "Feature", "properties": { "amenity": "school", "name": "Jeevan Jyoti Baikalpik School" }, "geometry": { "type": "Point", "coordinates": [ 85.34660915917047, 27.723761440771327 ] } },
{ "type": "Feature", "properties": { "amenity": "kindergarten", "name": "Creative Kids Pre-School" }, "geometry": { "type": "Point", "coordinates": [ 85.34675150688058, 27.722834650495965 ] } },
{ "type": "Feature", "properties": { "amenity": "school", "name": "Gyandeep Siksha Sadan" }, "geometry": { "type": "Point", "coordinates": [ 85.349852130112112, 27.71473236048265 ] } },
{ "type": "Feature", "properties": { "amenity": "college", "name": "Innovative College of Health Science Pvt. Ltd." }, "geometry": { "type": "Point", "coordinates": [ 85.340386262765364, 27.711314611114808 ] } },
{ "type": "Feature", "properties": { "amenity": "school", "name": "Shree Bal Byabasayi Kendra Secondary School" }, "geometry": { "type": "Point", "coordinates": [ 85.340596207093753, 27.71085068319119 ] } },
{ "type": "Feature", "properties": { "amenity": "school", "name": "Opal International Higher Secondary School" }, "geometry": { "type": "Point", "coordinates": [ 85.341392771550872, 27.711963853494762 ] } },
{ "type": "Feature", "properties": { "amenity": "school", "name": "Seto Bangla Boarding School" }, "geometry": { "type": "Point", "coordinates": [ 85.338193360933232, 27.71164157197704 ] } },
{ "type": "Feature", "properties": { "amenity": "college", "name": "Newton International College" }, "geometry": { "type": "Point", "coordinates": [ 85.342679535384235, 27.713493897499404 ] } },
{ "type": "Feature", "properties": { "amenity": "school", "name": "Mount View School" }, "geometry": { "type": "Point", "coordinates": [ 85.343914189667899, 27.713553855034995 ] } },
{ "type": "Feature", "properties": { "amenity": "school", "name": "HEMS School" }, "geometry": { "type": "Point", "coordinates": [ 85.337901372239486, 27.708695847976916 ] } },
{ "type": "Feature", "properties": { "amenity": "school", "name": "Bon Skylark International Secondary School" }, "geometry": { "type": "Point", "coordinates": [ 85.346087252642945, 27.719100865685448 ] } },
{ "type": "Feature", "properties": { "amenity": "school", "name": "National Pioneer Academy" }, "geometry": { "type": "Point", "coordinates": [ 85.348024774089467, 27.715472595563732 ] } },
{ "type": "Feature", "properties": { "amenity": "school", "name": "Sagarmatha Vidya Mandir" }, "geometry": { "type": "Point", "coordinates": [ 85.347250444991431, 27.715283846688845 ] } },
{ "type": "Feature", "properties": { "amenity": "college", "name": "St. Lawrence College" }, "geometry": { "type": "Point", "coordinates": [ 85.346877618007312, 27.715431218447481 ] } },
{ "type": "Feature", "properties": { "amenity": "college", "name": "Himalayan College of Geomatic Engineering and Land Resources Management" }, "geometry": { "type": "Point", "coordinates": [ 85.347335514672977, 27.712834877965765 ] } },
{ "type": "Feature", "properties": { "amenity": "school", "name": "Prerana School" }, "geometry": { "type": "Point", "coordinates": [ 85.351092271796546, 27.715732958139991 ] } },
{ "type": "Feature", "properties": { "amenity": "school", "name": "Supreme International High School" }, "geometry": { "type": "Point", "coordinates": [ 85.351085424780806, 27.717061466709328 ] } },
{ "type": "Feature", "properties": { "amenity": "school", "name": "Bishwa Sikshya Sadan" }, "geometry": { "type": "Point", "coordinates": [ 85.349797292719146, 27.71765580677825 ] } },
{ "type": "Feature", "properties": { "amenity": "school", "name": "Esteem Learning School" }, "geometry": { "type": "Point", "coordinates": [ 85.351185506687884, 27.717978846061236 ] } },
{ "type": "Feature", "properties": { "amenity": "school", "name": "Disneyland Pre-School" }, "geometry": { "type": "Point", "coordinates": [ 85.350756697077571, 27.718571886261422 ] } },
{ "type": "Feature", "properties": { "amenity": "school", "name": "Riviera International School" }, "geometry": { "type": "Point", "coordinates": [ 85.353559520010251, 27.718407842640215 ] } },
{ "type": "Feature", "properties": { "amenity": "school", "name": "Praxis International Academy" }, "geometry": { "type": "Point", "coordinates": [ 85.350318998948794, 27.718470149350331 ] } },
{ "type": "Feature", "properties": { "amenity": "school", "name": "Shree Shram Rastriya Secondary School" }, "geometry": { "type": "Point", "coordinates": [ 85.354788411325856, 27.717055783885005 ] } },
{ "type": "Feature", "properties": { "amenity": "college", "name": "Himal Dental Hospital & Institute of Dental Science" }, "geometry": { "type": "Point", "coordinates": [ 85.34602167013793, 27.719787665435348 ] } },
{ "type": "Feature", "properties": { "amenity": "school", "name": "Vinayak English Higher Secondary School" }, "geometry": { "type": "Point", "coordinates": [ 85.347865593328152, 27.719636204532367 ] } },
{ "type": "Feature", "properties": { "amenity": "school", "name": "Kathmandu Unified City School" }, "geometry": { "type": "Point", "coordinates": [ 85.345524192201964, 27.716482909479279 ] } },
{ "type": "Feature", "properties": { "amenity": "college", "name": "Kailashkut Multiple College" }, "geometry": { "type": "Point", "coordinates": [ 85.34634448322349, 27.715335140572375 ] } },
{ "type": "Feature", "properties": { "amenity": "college", "name": "Pashupati Multiple College" }, "geometry": { "type": "Point", "coordinates": [ 85.344653395716165, 27.713407512715328 ] } },
{ "type": "Feature", "properties": { "amenity": "college", "name": "Opal College of Applied Management" }, "geometry": { "type": "Point", "coordinates": [ 85.342332174483985, 27.713511414927307 ] } },
{ "type": "Feature", "properties": { "amenity": "school", "name": "Lyceum Model School" }, "geometry": { "type": "Point", "coordinates": [ 85.340522208291105, 27.714587531514134 ] } },
{ "type": "Feature", "properties": { "amenity": "college", "name": "Texas International College" }, "geometry": { "type": "Point", "coordinates": [ 85.344616513784786, 27.712527023804938 ] } },
{ "type": "Feature", "properties": { "amenity": "college", "name": "Nepal College of Travel and Tourism Management" }, "geometry": { "type": "Point", "coordinates": [ 85.339548309773406, 27.707756002885805 ] } },
{ "type": "Feature", "properties": { "amenity": "school", "name": "Shree Gyan Jyoti Women School" }, "geometry": { "type": "Point", "coordinates": [ 85.344230354437457, 27.713093357991621 ] } }
]
}
